STARLINK-3789           
1 52283U 22041Y   26068.79656661 -.00000395  00000+0 -67074-5 0  9994
2 52283  53.2155 108.6408 0001291  85.4740 274.6400 15.08836964214382
SEDNA-2                 
1 63153U 25009DQ  26068.79893845  .00008085  00000+0  49393-3 0  9990
2 63153  97.4615 144.8075 0010309  53.0260 307.1912 15.10492622 63116
